IRIDIUM 33 DEB          
1 33960U 97051BV  26116.82179887  .00021808  00000+0  21104-2 0  9997
2 33960  86.2552 225.4140 0001281 176.2562 305.6012 14.92656269908778
IRIDIUM 33 DEB          
1 33966U 97051CB  26116.07254361  .00001520  00000+0  38550-3 0  9994
2 33966  86.3945 348.3712 0009472 107.3676  50.5972 14.50222491903880
IRIDIUM 33 DEB          
1 34071U 97051CE  26116.79455345  .00001872  00000+0  47649-3 0  9995
2 34071  86.3429 319.1144 0008629  32.1322 328.0407 14.50190174902917
IRIDIUM 33 DEB          
1 34077U 97051CL  26116.89452763  .00004363  00000+0  76848-3 0  9994
2 34077  86.3881 351.8558 0007084 293.5018  77.4407 14.67362122903138
IRIDIUM 33 DEB          
1 34079U 97051CN  26116.76588117  .00015476  00000+0  16703-2 0  9995
2 34079  86.3726 306.9990 0005214 207.6858 166.9607 14.88277723909834
IRIDIUM 33 DEB          
1 34088U 97051CX  26116.64636170  .00034545  00000+0  26955-2 0  9993
2 34088  86.3804 328.2544 0005411  79.3796 344.7299 15.00988464907597
IRIDIUM 33 DEB          
1 34091U 97051DA  26116.69225639  .00028287  00000+0  26914-2 0  9997
2 34091  86.3476   4.4684 0026612 169.5345 190.6443 14.93034755898732
IRIDIUM 33 DEB          
1 34097U 97051DG  26116.48356909  .00003130  00000+0  10369-2 0  9992
2 34097  86.1949 301.8814 0079679 281.2070  78.0177 14.35832710890523
IRIDIUM 33 DEB          
1 34145U 97051DY  26116.42217356  .00003151  00000+0  91340-3 0  9994
2 34145  86.2066 272.4671 0052171  11.9185 348.3236 14.43372300895803
IRIDIUM 33 DEB          
1 34146U 97051DZ  26116.77452256  .00003239  00000+0  82807-3 0  9998
2 34146  86.2784 290.1029 0028243 132.9645 243.2132 14.49950344900635
IRIDIUM 33 DEB          
1 34159U 97051EN  26116.59457034  .00000902  00000+0  28577-3 0  9999
2 34159  86.3538 350.7481 0026669 200.7576 159.2541 14.38862166898985
IRIDIUM 33 DEB          
1 34350U 97051ES  26116.57911807  .00001115  00000+0  30781-3 0  9990
2 34350  86.3232 304.2961 0022723  55.2020  10.3348 14.45791045902411
IRIDIUM 33 DEB          
1 34366U 97051FJ  26116.62538274  .00004243  00000+0  96920-3 0  9998
2 34366  86.3709 350.5926 0022165  50.2825 339.4349 14.55405437901435
IRIDIUM 33 DEB          
1 34375U 97051FT  26116.47793014  .00000873  00000+0  39344-3 0  9998
2 34375  86.4275 128.4061 0103835  59.7338  92.1914 14.18259676886213
IRIDIUM 33 DEB          
1 34376U 97051FU  26116.73833845  .00010397  00000+0  19153-2 0  9992
2 34376  86.2922 305.7035 0026591  73.2707 287.1421 14.65240047899820
IRIDIUM 33 DEB          
1 34486U 97051GB  26116.49015094  .00034609  00000+0  24385-2 0  9990
2 34486  86.3890 309.3503 0008207 355.1401  33.3489 15.04833230910076
