[{"OBJECT_NAME":"IRIDIUM 33 DEB","OBJECT_ID":"1997-051BV","EPOCH":"2026-04-26T19:43:23.422368","MEAN_MOTION":14.92656269,"ECCENTRICITY":0.0001281,"INCLINATION":86.2552,"RA_OF_ASC_NODE":225.414,"ARG_OF_PERICENTER":176.2562,"MEAN_ANOMALY":305.6012,"EPHEMERIS_TYPE":0,"CLASSIFICATION_TYPE":"U","NORAD_CAT_ID":33960,"ELEMENT_SET_NO":999,"REV_AT_EPOCH":90877,"BSTAR":0.0021104,"MEAN_MOTION_DOT":0.00021808,"MEAN_MOTION_DDOT":0},{"OBJECT_NAME":"IRIDIUM 33 DEB","OBJECT_ID":"1997-051CB","EPOCH":"2026-04-26T01:44:27.767904","MEAN_MOTION":14.50222491,"ECCENTRICITY":0.00094721,"INCLINATION":86.3945,"RA_OF_ASC_NODE":348.3712,"ARG_OF_PERICENTER":107.3676,"MEAN_ANOMALY":50.5972,"EPHEMERIS_TYPE":0,"CLASSIFICATION_TYPE":"U","NORAD_CAT_ID":33966,"ELEMENT_SET_NO":999,"REV_AT_EPOCH":90388,"BSTAR":0.00038550472,"MEAN_MOTION_DOT":1.52e-5,"MEAN_MOTION_DDOT":0},{"OBJECT_NAME":"IRIDIUM 33 DEB","OBJECT_ID":"1997-051CE","EPOCH":"2026-04-26T19:04:09.418080","MEAN_MOTION":14.50190174,"ECCENTRICITY":0.0008629,"INCLINATION":86.3429,"RA_OF_ASC_NODE":319.1144,"ARG_OF_PERICENTER":32.1322,"MEAN_ANOMALY":328.0407,"EPHEMERIS_TYPE":0,"CLASSIFICATION_TYPE":"U","NORAD_CAT_ID":34071,"ELEMENT_SET_NO":999,"REV_AT_EPOCH":90291,"BSTAR":0.00047649,"MEAN_MOTION_DOT":1.872e-5,"MEAN_MOTION_DDOT":0},{"OBJECT_NAME":"IRIDIUM 33 DEB","OBJECT_ID":"1997-051CL","EPOCH":"2026-04-26T21:28:07.187232","MEAN_MOTION":14.67362122,"ECCENTRICITY":0.0007084,"INCLINATION":86.3881,"RA_OF_ASC_NODE":351.8558,"ARG_OF_PERICENTER":293.5018,"MEAN_ANOMALY":77.4407,"EPHEMERIS_TYPE":0,"CLASSIFICATION_TYPE":"U","NORAD_CAT_ID":34077,"ELEMENT_SET_NO":999,"REV_AT_EPOCH":90313,"BSTAR":0.00076848,"MEAN_MOTION_DOT":4.363e-5,"MEAN_MOTION_DDOT":0},{"OBJECT_NAME":"IRIDIUM 33 DEB","OBJECT_ID":"1997-051CN","EPOCH":"2026-04-26T18:22:52.133088","MEAN_MOTION":14.88277723,"ECCENTRICITY":0.0005214,"INCLINATION":86.3726,"RA_OF_ASC_NODE":306.999,"ARG_OF_PERICENTER":207.6858,"MEAN_ANOMALY":166.9607,"EPHEMERIS_TYPE":0,"CLASSIFICATION_TYPE":"U","NORAD_CAT_ID":34079,"ELEMENT_SET_NO":999,"REV_AT_EPOCH":90983,"BSTAR":0.0016703,"MEAN_MOTION_DOT":0.00015476,"MEAN_MOTION_DDOT":0},{"OBJECT_NAME":"IRIDIUM 33 DEB","OBJECT_ID":"1997-051CX","EPOCH":"2026-04-26T15:30:45.650880","MEAN_MOTION":15.00988464,"ECCENTRICITY":0.0005411,"INCLINATION":86.3804,"RA_OF_ASC_NODE":328.2544,"ARG_OF_PERICENTER":79.3796,"MEAN_ANOMALY":344.7299,"EPHEMERIS_TYPE":0,"CLASSIFICATION_TYPE":"U","NORAD_CAT_ID":34088,"ELEMENT_SET_NO":999,"REV_AT_EPOCH":90759,"BSTAR":0.0026955,"MEAN_MOTION_DOT":0.00034545,"MEAN_MOTION_DDOT":0},{"OBJECT_NAME":"IRIDIUM 33 DEB","OBJECT_ID":"1997-051DA","EPOCH":"2026-04-26T16:36:50.952096","MEAN_MOTION":14.93034755,"ECCENTRICITY":0.0026612,"INCLINATION":86.3476,"RA_OF_ASC_NODE":4.4684,"ARG_OF_PERICENTER":169.5345,"MEAN_ANOMALY":190.6443,"EPHEMERIS_TYPE":0,"CLASSIFICATION_TYPE":"U","NORAD_CAT_ID":34091,"ELEMENT_SET_NO":999,"REV_AT_EPOCH":89873,"BSTAR":0.0026914,"MEAN_MOTION_DOT":0.00028287,"MEAN_MOTION_DDOT":0},{"OBJECT_NAME":"IRIDIUM 33 DEB","OBJECT_ID":"1997-051DG","EPOCH":"2026-04-26T11:36:20.369376","MEAN_MOTION":14.3583271,"ECCENTRICITY":0.00796793,"INCLINATION":86.1949,"RA_OF_ASC_NODE":301.8814,"ARG_OF_PERICENTER":281.207,"MEAN_ANOMALY":78.0177,"EPHEMERIS_TYPE":0,"CLASSIFICATION_TYPE":"U","NORAD_CAT_ID":34097,"ELEMENT_SET_NO":999,"REV_AT_EPOCH":89052,"BSTAR":0.0010368909,"MEAN_MOTION_DOT":3.13e-5,"MEAN_MOTION_DDOT":0},{"OBJECT_NAME":"IRIDIUM 33 DEB","OBJECT_ID":"1997-051DY","EPOCH":"2026-04-26T10:07:55.795584","MEAN_MOTION":14.433723,"ECCENTRICITY":0.00521713,"INCLINATION":86.2066,"RA_OF_ASC_NODE":272.4671,"ARG_OF_PERICENTER":11.9185,"MEAN_ANOMALY":348.3236,"EPHEMERIS_TYPE":0,"CLASSIFICATION_TYPE":"U","NORAD_CAT_ID":34145,"ELEMENT_SET_NO":999,"REV_AT_EPOCH":89580,"BSTAR":0.00091339516,"MEAN_MOTION_DOT":3.151e-5,"MEAN_MOTION_DDOT":0},{"OBJECT_NAME":"IRIDIUM 33 DEB","OBJECT_ID":"1997-051DZ","EPOCH":"2026-04-26T18:35:18.749184","MEAN_MOTION":14.49950344,"ECCENTRICITY":0.0028243,"INCLINATION":86.2784,"RA_OF_ASC_NODE":290.1029,"ARG_OF_PERICENTER":132.9645,"MEAN_ANOMALY":243.2132,"EPHEMERIS_TYPE":0,"CLASSIFICATION_TYPE":"U","NORAD_CAT_ID":34146,"ELEMENT_SET_NO":999,"REV_AT_EPOCH":90063,"BSTAR":0.00082807,"MEAN_MOTION_DOT":3.239e-5,"MEAN_MOTION_DDOT":0},{"OBJECT_NAME":"IRIDIUM 33 DEB","OBJECT_ID":"1997-051EN","EPOCH":"2026-04-26T14:16:10.877376","MEAN_MOTION":14.38862166,"ECCENTRICITY":0.0026669,"INCLINATION":86.3538,"RA_OF_ASC_NODE":350.7481,"ARG_OF_PERICENTER":200.7576,"MEAN_ANOMALY":159.2541,"EPHEMERIS_TYPE":0,"CLASSIFICATION_TYPE":"U","NORAD_CAT_ID":34159,"ELEMENT_SET_NO":999,"REV_AT_EPOCH":89898,"BSTAR":0.00028577,"MEAN_MOTION_DOT":9.02e-6,"MEAN_MOTION_DDOT":0},{"OBJECT_NAME":"IRIDIUM 33 DEB","OBJECT_ID":"1997-051ES","EPOCH":"2026-04-26T13:53:55.801248","MEAN_MOTION":14.45791045,"ECCENTRICITY":0.0022723,"INCLINATION":86.3232,"RA_OF_ASC_NODE":304.2961,"ARG_OF_PERICENTER":55.202,"MEAN_ANOMALY":10.3348,"EPHEMERIS_TYPE":0,"CLASSIFICATION_TYPE":"U","NORAD_CAT_ID":34350,"ELEMENT_SET_NO":999,"REV_AT_EPOCH":90241,"BSTAR":0.00030781,"MEAN_MOTION_DOT":1.115e-5,"MEAN_MOTION_DDOT":0},{"OBJECT_NAME":"IRIDIUM 33 DEB","OBJECT_ID":"1997-051FJ","EPOCH":"2026-04-26T15:00:33.068736","MEAN_MOTION":14.55405437,"ECCENTRICITY":0.0022165,"INCLINATION":86.3709,"RA_OF_ASC_NODE":350.5926,"ARG_OF_PERICENTER":50.2825,"MEAN_ANOMALY":339.4349,"EPHEMERIS_TYPE":0,"CLASSIFICATION_TYPE":"U","NORAD_CAT_ID":34366,"ELEMENT_SET_NO":999,"REV_AT_EPOCH":90143,"BSTAR":0.0009692,"MEAN_MOTION_DOT":4.243e-5,"MEAN_MOTION_DDOT":0},{"OBJECT_NAME":"IRIDIUM 33 DEB","OBJECT_ID":"1997-051FT","EPOCH":"2026-04-26T11:28:13.164096","MEAN_MOTION":14.18259676,"ECCENTRICITY":0.01038359,"INCLINATION":86.4275,"RA_OF_ASC_NODE":128.4061,"ARG_OF_PERICENTER":59.7338,"MEAN_ANOMALY":92.1914,"EPHEMERIS_TYPE":0,"CLASSIFICATION_TYPE":"U","NORAD_CAT_ID":34375,"ELEMENT_SET_NO":999,"REV_AT_EPOCH":88621,"BSTAR":0.00039344089,"MEAN_MOTION_DOT":8.73e-6,"MEAN_MOTION_DDOT":0},{"OBJECT_NAME":"IRIDIUM 33 DEB","OBJECT_ID":"1997-051FU","EPOCH":"2026-04-26T17:43:12.442080","MEAN_MOTION":14.65240047,"ECCENTRICITY":0.0026591,"INCLINATION":86.2922,"RA_OF_ASC_NODE":305.7035,"ARG_OF_PERICENTER":73.2707,"MEAN_ANOMALY":287.1421,"EPHEMERIS_TYPE":0,"CLASSIFICATION_TYPE":"U","NORAD_CAT_ID":34376,"ELEMENT_SET_NO":999,"REV_AT_EPOCH":89982,"BSTAR":0.0019153,"MEAN_MOTION_DOT":0.00010397,"MEAN_MOTION_DDOT":0},{"OBJECT_NAME":"IRIDIUM 33 DEB","OBJECT_ID":"1997-051GB","EPOCH":"2026-04-26T11:45:49.041216","MEAN_MOTION":15.0483323,"ECCENTRICITY":0.00082079,"INCLINATION":86.389,"RA_OF_ASC_NODE":309.3503,"ARG_OF_PERICENTER":355.1401,"MEAN_ANOMALY":33.3489,"EPHEMERIS_TYPE":0,"CLASSIFICATION_TYPE":"U","NORAD_CAT_ID":34486,"ELEMENT_SET_NO":999,"REV_AT_EPOCH":91007,"BSTAR":0.0024385403,"MEAN_MOTION_DOT":0.00034609,"MEAN_MOTION_DDOT":0}]
